CCSDS_OMM_VERS = 2.0
CREATION_DATE  = 
ORIGINATOR     = 

OBJECT_NAME    = IDEFIX & ARIANE 42P R/B
OBJECT_ID      = 2002-021B
CENTER_NAME    = EARTH
REF_FRAME      = TEME
TIME_SYSTEM    = UTC
MEAN_ELEMENT_THEORY = SGP/SGP4

EPOCH          = 2026-02-23T07:14:57.437952
MEAN_MOTION    = 14.31014844
ECCENTRICITY   = .0010824
INCLINATION    = 98.5857
RA_OF_ASC_NODE = 353.0817
ARG_OF_PERICENTER = 226.7615
MEAN_ANOMALY   = 133.2665

EPHEMERIS_TYPE = 0
CLASSIFICATION_TYPE = U
NORAD_CAT_ID   = 27422
ELEMENT_SET_NO = 999
REV_AT_EPOCH   = 24196
BSTAR          = .12585E-3
MEAN_MOTION_DOT = .288E-5
MEAN_MOTION_DDOT = 0

CCSDS_OMM_VERS = 2.0
CREATION_DATE  = 
ORIGINATOR     = 

OBJECT_NAME    = AQUA
OBJECT_ID      = 2002-022A
CENTER_NAME    = EARTH
REF_FRAME      = TEME
TIME_SYSTEM    = UTC
MEAN_ELEMENT_THEORY = SGP/SGP4

EPOCH          = 2026-02-23T20:28:55.711776
MEAN_MOTION    = 14.61938996
ECCENTRICITY   = .0000934
INCLINATION    = 98.4149
RA_OF_ASC_NODE = 21.9692
ARG_OF_PERICENTER = 48.0359
MEAN_ANOMALY   = 342.1791

EPHEMERIS_TYPE = 0
CLASSIFICATION_TYPE = U
NORAD_CAT_ID   = 27424
ELEMENT_SET_NO = 999
REV_AT_EPOCH   = 26671
BSTAR          = .22529E-3
MEAN_MOTION_DOT = .1079E-4
MEAN_MOTION_DDOT = 0

CCSDS_OMM_VERS = 2.0
CREATION_DATE  = 
ORIGINATOR     = 

OBJECT_NAME    = CZ-4B R/B
OBJECT_ID      = 2002-024C
CENTER_NAME    = EARTH
REF_FRAME      = TEME
TIME_SYSTEM    = UTC
MEAN_ELEMENT_THEORY = SGP/SGP4

EPOCH          = 2026-02-23T14:14:22.620768
MEAN_MOTION    = 14.14544863
ECCENTRICITY   = .0051041
INCLINATION    = 98.8874
RA_OF_ASC_NODE = 108.0690
ARG_OF_PERICENTER = 63.7474
MEAN_ANOMALY   = 104.4206

EPHEMERIS_TYPE = 0
CLASSIFICATION_TYPE = U
NORAD_CAT_ID   = 27432
ELEMENT_SET_NO = 999
REV_AT_EPOCH   = 22724
BSTAR          = .35145E-4
MEAN_MOTION_DOT = .24E-6
MEAN_MOTION_DDOT = 0

CCSDS_OMM_VERS = 2.0
CREATION_DATE  = 
ORIGINATOR     = 

OBJECT_NAME    = MIDORI II (ADEOS-II)
OBJECT_ID      = 2002-056A
CENTER_NAME    = EARTH
REF_FRAME      = TEME
TIME_SYSTEM    = UTC
MEAN_ELEMENT_THEORY = SGP/SGP4

EPOCH          = 2026-02-23T14:13:27.575328
MEAN_MOTION    = 14.29273095
ECCENTRICITY   = .0002014
INCLINATION    = 98.7743
RA_OF_ASC_NODE = 12.9754
ARG_OF_PERICENTER = 62.6968
MEAN_ANOMALY   = 297.4418

EPHEMERIS_TYPE = 0
CLASSIFICATION_TYPE = U
NORAD_CAT_ID   = 27597
ELEMENT_SET_NO = 999
REV_AT_EPOCH   = 20828
BSTAR          = .11814E-3
MEAN_MOTION_DOT = .255E-5
MEAN_MOTION_DDOT = 0

CCSDS_OMM_VERS = 2.0
CREATION_DATE  = 
ORIGINATOR     = 

OBJECT_NAME    = H-2A R/B
OBJECT_ID      = 2002-056E
CENTER_NAME    = EARTH
REF_FRAME      = TEME
TIME_SYSTEM    = UTC
MEAN_ELEMENT_THEORY = SGP/SGP4

EPOCH          = 2026-02-23T15:10:12.969984
MEAN_MOTION    = 14.33750158
ECCENTRICITY   = .0069628
INCLINATION    = 98.3175
RA_OF_ASC_NODE = 15.5352
ARG_OF_PERICENTER = 202.6317
MEAN_ANOMALY   = 330.8240

EPHEMERIS_TYPE = 0
CLASSIFICATION_TYPE = U
NORAD_CAT_ID   = 27601
ELEMENT_SET_NO = 999
REV_AT_EPOCH   = 21209
BSTAR          = .11204E-3
MEAN_MOTION_DOT = .278E-5
MEAN_MOTION_DDOT = 0

CCSDS_OMM_VERS = 2.0
CREATION_DATE  = 
ORIGINATOR     = 

OBJECT_NAME    = CZ-4B R/B
OBJECT_ID      = 2003-049C
CENTER_NAME    = EARTH
REF_FRAME      = TEME
TIME_SYSTEM    = UTC
MEAN_ELEMENT_THEORY = SGP/SGP4

EPOCH          = 2026-02-23T10:09:58.324608
MEAN_MOTION    = 14.55004041
ECCENTRICITY   = .00470076
INCLINATION    = 98.6866
RA_OF_ASC_NODE = 48.7705
ARG_OF_PERICENTER = 275.5040
MEAN_ANOMALY   = 84.0795

EPHEMERIS_TYPE = 0
CLASSIFICATION_TYPE = U
NORAD_CAT_ID   = 28059
ELEMENT_SET_NO = 999
REV_AT_EPOCH   = 18452
BSTAR          = .10971431E-3
MEAN_MOTION_DOT = .427E-5
MEAN_MOTION_DDOT = 0

CCSDS_OMM_VERS = 2.0
CREATION_DATE  = 
ORIGINATOR     = 

OBJECT_NAME    = CZ-2C R/B
OBJECT_ID      = 2004-012C
CENTER_NAME    = EARTH
REF_FRAME      = TEME
TIME_SYSTEM    = UTC
MEAN_ELEMENT_THEORY = SGP/SGP4

EPOCH          = 2026-02-23T14:14:48.896736
MEAN_MOTION    = 15.62754641
ECCENTRICITY   = .0014239
INCLINATION    = 97.7262
RA_OF_ASC_NODE = 118.5686
ARG_OF_PERICENTER = 6.0052
MEAN_ANOMALY   = 354.1373

EPHEMERIS_TYPE = 0
CLASSIFICATION_TYPE = U
NORAD_CAT_ID   = 28222
ELEMENT_SET_NO = 999
REV_AT_EPOCH   = 20207
BSTAR          = .66689E-3
MEAN_MOTION_DOT = .60394E-3
MEAN_MOTION_DDOT = 0

CCSDS_OMM_VERS = 2.0
CREATION_DATE  = 
ORIGINATOR     = 

OBJECT_NAME    = SL-16 R/B
OBJECT_ID      = 2004-021B
CENTER_NAME    = EARTH
REF_FRAME      = TEME
TIME_SYSTEM    = UTC
MEAN_ELEMENT_THEORY = SGP/SGP4

EPOCH          = 2026-02-23T19:25:41.384928
MEAN_MOTION    = 14.14598804
ECCENTRICITY   = .0003369
INCLINATION    = 70.9990
RA_OF_ASC_NODE = 261.6233
ARG_OF_PERICENTER = 41.2671
MEAN_ANOMALY   = 318.8706

EPHEMERIS_TYPE = 0
CLASSIFICATION_TYPE = U
NORAD_CAT_ID   = 28353
ELEMENT_SET_NO = 999
REV_AT_EPOCH   = 12087
BSTAR          = .10098E-3
MEAN_MOTION_DOT = .146E-5
MEAN_MOTION_DDOT = 0

CCSDS_OMM_VERS = 2.0
CREATION_DATE  = 
ORIGINATOR     = 

OBJECT_NAME    = CZ-4B R/B
OBJECT_ID      = 2004-035C
CENTER_NAME    = EARTH
REF_FRAME      = TEME
TIME_SYSTEM    = UTC
MEAN_ELEMENT_THEORY = SGP/SGP4

EPOCH          = 2026-02-23T01:15:40.457376
MEAN_MOTION    = 15.28768070
ECCENTRICITY   = .00328169
INCLINATION    = 97.3525
RA_OF_ASC_NODE = 88.4720
ARG_OF_PERICENTER = 23.8784
MEAN_ANOMALY   = 336.3970

EPHEMERIS_TYPE = 0
CLASSIFICATION_TYPE = U
NORAD_CAT_ID   = 28415
ELEMENT_SET_NO = 999
REV_AT_EPOCH   = 17767
BSTAR          = .35249541E-3
MEAN_MOTION_DOT = .9943E-4
MEAN_MOTION_DDOT = 0

CCSDS_OMM_VERS = 2.0
CREATION_DATE  = 
ORIGINATOR     = 

OBJECT_NAME    = CZ-2C R/B
OBJECT_ID      = 2004-046B
CENTER_NAME    = EARTH
REF_FRAME      = TEME
TIME_SYSTEM    = UTC
MEAN_ELEMENT_THEORY = SGP/SGP4

EPOCH          = 2026-02-23T07:42:59.134464
MEAN_MOTION    = 14.26986799
ECCENTRICITY   = .0138995
INCLINATION    = 98.1989
RA_OF_ASC_NODE = 330.1987
ARG_OF_PERICENTER = 196.9067
MEAN_ANOMALY   = 162.7459

EPHEMERIS_TYPE = 0
CLASSIFICATION_TYPE = U
NORAD_CAT_ID   = 28480
ELEMENT_SET_NO = 999
REV_AT_EPOCH   = 10645
BSTAR          = .62638559E-4
MEAN_MOTION_DOT = .127E-5
MEAN_MOTION_DDOT = 0

CCSDS_OMM_VERS = 2.0
CREATION_DATE  = 
ORIGINATOR     = 

OBJECT_NAME    = ARIANE 5 R/B
OBJECT_ID      = 2004-049H
CENTER_NAME    = EARTH
REF_FRAME      = TEME
TIME_SYSTEM    = UTC
MEAN_ELEMENT_THEORY = SGP/SGP4

EPOCH          = 2026-02-23T10:01:40.251072
MEAN_MOTION    = 14.85235946
ECCENTRICITY   = .00849304
INCLINATION    = 98.2603
RA_OF_ASC_NODE = 222.3432
ARG_OF_PERICENTER = 38.0507
MEAN_ANOMALY   = 322.6664

EPHEMERIS_TYPE = 0
CLASSIFICATION_TYPE = U
NORAD_CAT_ID   = 28499
ELEMENT_SET_NO = 999
REV_AT_EPOCH   = 14367
BSTAR          = .97238564E-4
MEAN_MOTION_DOT = .825E-5
MEAN_MOTION_DDOT = 0

CCSDS_OMM_VERS = 2.0
CREATION_DATE  = 
ORIGINATOR     = 

OBJECT_NAME    = CZ-2D R/B
OBJECT_ID      = 2005-024B
CENTER_NAME    = EARTH
REF_FRAME      = TEME
TIME_SYSTEM    = UTC
MEAN_ELEMENT_THEORY = SGP/SGP4

EPOCH          = 2026-02-23T11:08:06.260640
MEAN_MOTION    = 15.58780890
ECCENTRICITY   = .00074751
INCLINATION    = 97.3617
RA_OF_ASC_NODE = 69.1037
ARG_OF_PERICENTER = 80.8290
MEAN_ANOMALY   = 279.3811

EPHEMERIS_TYPE = 0
CLASSIFICATION_TYPE = U
NORAD_CAT_ID   = 28738
ELEMENT_SET_NO = 999
REV_AT_EPOCH   = 13756
BSTAR          = .60912427E-3
MEAN_MOTION_DOT = .47129E-3
MEAN_MOTION_DDOT = 0

